[{"OBJECT_NAME":"CORVUS BC4","OBJECT_ID":"2018-099K","EPOCH":"2026-03-09T15:49:18.108768","MEAN_MOTION":15.1161571,"ECCENTRICITY":0.00080458,"INCLINATION":97.4206,"RA_OF_ASC_NODE":114.5457,"ARG_OF_PERICENTER":356.5821,"MEAN_ANOMALY":3.5354,"EPHEMERIS_TYPE":0,"CLASSIFICATION_TYPE":"U","NORAD_CAT_ID":43767,"ELEMENT_SET_NO":999,"REV_AT_EPOCH":39736,"BSTAR":0.00033979895,"MEAN_MOTION_DOT":5.714e-5,"MEAN_MOTION_DDOT":0},{"OBJECT_NAME":"STARLINK-3174","OBJECT_ID":"2022-010N","EPOCH":"2026-03-09T22:37:41.818368","MEAN_MOTION":15.08835058,"ECCENTRICITY":0.0001259,"INCLINATION":53.2172,"RA_OF_ASC_NODE":277.9482,"ARG_OF_PERICENTER":88.5621,"MEAN_ANOMALY":271.5515,"EPHEMERIS_TYPE":0,"CLASSIFICATION_TYPE":"U","NORAD_CAT_ID":51468,"ELEMENT_SET_NO":999,"REV_AT_EPOCH":22655,"BSTAR":-1.8452855e-5,"MEAN_MOTION_DOT":-5.81e-6,"MEAN_MOTION_DDOT":0}]
